GLOBALSTAR M067         
1 32263U 07048A   24319.21800484 -.00000044  00000+0  39722-3 0  9995
2 32263  51.9735 304.9449 0000579 256.1975 116.7411 12.40659736782806
GLOBALSTAR M070         
1 32264U 07048B   24319.48245486 -.00000092  00000+0  66639-4 0  9991
2 32264  51.9764  62.5730 0000569  99.0466 354.5963 12.62305544786556
GLOBALSTAR M066         
1 32265U 07048C   24319.27340211 -.00000067  00000+0  22508-3 0  9999
2 32265  51.9676 291.6970 0000479 358.6925 110.2440 12.42165804788677
GLOBALSTAR M068         
1 32266U 07048D   24319.19986112 -.00000052  00000+0  28787-3 0  9996
2 32266  51.9883 237.6023 0001679  40.5514 106.6777 12.62808047790390
GLOBALSTAR M079         
1 37188U 10054A   24319.51341980 -.00000102  00000+0  85223-5 0  9995
2 37188  52.0047  73.2865 0000923 129.5801 310.3765 12.62267180649344
GLOBALSTAR M074         
1 37189U 10054B   24319.62352425 -.00000106  00000+0 -15100-4 0  9995
2 37189  52.0023  72.3036 0000560 112.4466 350.0357 12.62258966649962
GLOBALSTAR M076         
1 37190U 10054C   24319.39593228 -.00000114  00000+0 -58808-4 0  9990
2 37190  52.0036  73.1526 0000620 141.6171 243.3339 12.62273530649659
GLOBALSTAR M077         
1 37191U 10054D   24319.39483306 -.00000081  00000+0  12913-3 0  9994
2 37191  52.0096  29.9513 0000486 118.8098 321.4725 12.62266927650027
